441P/PANSTARRS,e,2.5745,143.5864,178.8516,4.131260,0.1173763,0.19445665,8.8858,11/24.0/2025,2000,g 13.5,4.0
# From MPEC 2025-W75
442P/McNaught,e,6.0581,31.9047,310.6133,4.951518,0.0894533,0.53266168,106.8723,11/24.0/2025,2000,g 13.5,4.0
# From MPEC 2025-W75
443P/PANSTARRS-Christensen,e,19.8880,108.9329,145.0413,4.124349,0.1176714,0.28282632,134.3799,11/24.0/2025,2000,g 13.5,4.0
# From MPEC 2025-W75
444P/WISE-PANSTARRS,e,22.6941,88.1960,172.8042,3.478405,0.1519266,0.55518021,189.3498,11/24.0/2025,2000,g 17.0,4.0
# From MPEC 2025-W75
445P/Lemmon-PANSTARRS,e,1.0892,126.5949,213.1112,4.044454,0.1211753,0.41444745,144.9339,11/24.0/2025,2000,g 15.0,4.0
# From MPEC 2025-W75
446P/McNaught,e,16.6422,336.3068,344.6035,4.557758,0.1012925,0.64691901,129.2235,11/24.0/2025,2000,g 16.5,4.0
# From MPEC 2025-W75
447P/Sheppard-Tholen,e,7.4417,302.6385,97.3960,5.623542,0.0739076,0.17700010,88.4731,11/24.0/2025,2000,g 12.0,4.0
# From MPEC 2025-W75
448P/PANSTARRS,e,12.1432,161.7496,218.8070,3.636907,0.1421038,0.41794635,166.9909,11/24.0/2025,2000,g 16.0,4.0
# From MPEC 2025-W75
449P/Leonard,e,15.4685,242.5186,176.7795,3.599602,0.1443186,0.47970735,263.2723,11/24.0/2025,2000,g 16.0,4.0
# From MPEC 2025-W75
450P/LONEOS,e,10.8528,123.9478,25.7088,7.875613,0.0445941,0.31270751,339.7347,11/24.0/2025,2000,g  6.5,4.0
# From MPEC 2025-W75
451P/Christensen,e,26.4872,300.8627,186.8184,6.351945,0.0615664,0.55929828,67.2228,11/24.0/2025,2000,g 13.5,4.0
# From MPEC 2025-W75
452P/Sheppard-Jewitt,e,6.4223,123.6608,37.1215,7.313559,0.0498323,0.42874678,46.9802,11/24.0/2025,2000,g  9.0,4.0
# From MPEC 2025-W75
453P/WISE-Lemmon,e,27.0547,42.8866,70.9209,5.468661,0.0770695,0.58317671,76.8021,11/24.0/2025,2000,g 14.0,4.0
# From MPEC 2025-W75
454P/PANSTARRS,e,19.8067,54.5867,20.2230,4.212228,0.1140083,0.36129385,138.6693,11/24.0/2025,2000,g 14.0,4.0
# From MPEC 2025-W75
455P/PANSTARRS,e,14.1339,146.1757,237.5371,3.153792,0.1759764,0.30426195,176.5567,11/24.0/2025,2000,g 17.0,4.0
# From MPEC 2025-W75
456P/PANSTARRS,e,16.9649,243.1380,232.9775,3.168691,0.1747367,0.11564562,39.0084,11/24.0/2025,2000,g 13.5,4.0
# From MPEC 2025-W75
457P/Lemmon-PANSTARRS,e,5.2258,175.9639,104.2923,2.645010,0.2291201,0.11830990,105.6359,11/24.0/2025,2000,g 15.5,4.0
# From MPEC 2025-W75
458P/Jahn,e,13.6217,1.5490,104.9703,3.859576,0.1299855,0.31725060,145.5881,11/24.0/2025,2000,g 14.0,4.0
# From MPEC 2025-W75
459P/Catalina,e,7.1731,256.9860,205.2366,3.240493,0.1689613,0.57787211,170.0050,11/24.0/2025,2000,g 15.5,4.0
# From MPEC 2025-W75
460P/PANSTARRS,e,18.9005,180.5176,351.9310,3.027529,0.1870990,0.66429031,303.5707,11/24.0/2025,2000,g 21.0,4.0
# From MPEC 2025-W75
461P/WISE,e,18.3956,194.3728,174.8264,3.144688,0.1767412,0.56944071,267.1908,11/24.0/2025,2000,g 18.5,4.0
# From MPEC 2025-W75
462P/LONEOS-PANSTARRS,e,7.0569,322.6283,4.1499,4.857469,0.0920638,0.57876889,111.5196,11/24.0/2025,2000,g 17.0,4.0
# From MPEC 2025-W75
463P/NEOWISE,e,29.2957,283.2175,216.3435,2.973988,0.1921743,0.82598572,186.4080,11/24.0/2025,2000,g 18.0,4.0
# From MPEC 2025-W75
464P/PANSTARRS,e,21.6739,309.5789,267.4879,4.683089,0.0972535,0.28071689,97.3233,11/24.0/2025,2000,g 10.5,4.0
# From MPEC 2025-W75
465P/Hill,e,25.8619,217.9337,140.9652,6.004132,0.0669929,0.61298558,62.3261,11/24.0/2025,2000,g 12.5,4.0
# From MPEC 2025-W75
466P/PANSTARRS,e,15.1727,115.6892,197.8831,3.961889,0.1249829,0.49170167,115.8003,11/24.0/2025,2000,g 14.0,4.0
# From MPEC 2025-W75
467P/LINEAR-Grauer,e,2.4794,43.2620,267.2248,5.824395,0.0701177,0.05426127,76.9085,11/24.0/2025,2000,g  9.0,4.0
# From MPEC 2025-W75
468P/SidingSpring,e,50.4551,356.1299,322.5573,7.114618,0.0519370,0.44475214,38.1266,11/24.0/2025,2000,g 11.5,4.0
# From MPEC 2025-W75
469P/PANSTARRS,e,20.1710,178.9655,43.4914,4.343557,0.1088769,0.30816904,358.4342,11/24.0/2025,2000,g 13.5,4.0
# From MPEC 2025-W75
470P/PANSTARRS,e,8.8439,246.1615,151.6515,4.462018,0.1045700,0.38924736,74.0876,11/24.0/2025,2000,g 15.5,4.0
# From MPEC 2025-W75
471P/LINEAR-Lemmon,e,4.7970,283.3124,94.7344,5.688568,0.0726440,0.62757714,51.2383,11/24.0/2025,2000,g 12.0,4.0
# From MPEC 2025-W75
472P/NEAT-LINEAR,e,10.8263,205.8102,218.8053,7.764857,0.0455516,0.56388051,22.6983,11/24.0/2025,2000,g 10.5,4.0
# From MPEC 2025-W75
473P/NEAT,e,56.8857,22.1914,42.9463,7.973765,0.0437733,0.82357464,27.8741,11/24.0/2025,2000,g 13.5,4.0
# From MPEC 2025-W75
474P/Hogan,e,1.0968,26.7523,11.2703,3.130884,0.1779114,0.18790563,153.4412,11/24.0/2025,2000,g 15.5,4.0
# From MPEC 2025-W75
475P/Spacewatch-LINEAR,e,14.5240,147.3530,40.4241,7.320463,0.0497618,0.44302063,26.8831,11/24.0/2025,2000,g 11.0,4.0
# From MPEC 2025-W75
476P/PANSTARRS,e,19.0053,57.0488,46.7474,4.774897,0.0944622,0.34581068,38.1139,11/24.0/2025,2000,g 12.5,4.0
# From MPEC 2025-W75
477P/PANSTARRS,e,8.9139,59.1399,305.8580,3.001564,0.1895320,0.41757112,132.3980,11/24.0/2025,2000,g 14.5,4.0
# From MPEC 2025-W75
478P/ATLAS,e,12.5252,127.2590,13.2690,3.648533,0.1414251,0.34381356,80.7163,11/24.0/2025,2000,g 13.5,4.0
# From MPEC 2025-W75
479P/Elenin,e,15.3995,295.8316,263.4957,5.622631,0.0739256,0.77897969,41.9671,11/24.0/2025,2000,g 15.0,4.0
# From MPEC 2025-W75
480P/PANSTARRS,e,13.7156,229.9843,214.4674,4.611864,0.0995152,0.24623402,94.0457,11/24.0/2025,2000,g 12.0,4.0
# From MPEC 2025-W75
481P/Lemmon-PANSTARRS,e,6.0827,93.5500,356.8438,4.682814,0.0972621,0.34340730,84.4804,11/24.0/2025,2000,g 13.5,4.0
# From MPEC 2025-W75
482P/PANSTARRS,e,24.4891,126.0720,339.7462,3.757322,0.1353276,0.49234815,122.5732,11/24.0/2025,2000,g 13.5,4.0
# From MPEC 2025-W75
483P/PANSTARRS,e,14.1738,199.0088,49.5561,3.195199,0.1725668,0.22169913,236.0556,11/24.0/2025,2000,g 16.5,4.0
# From MPC186638
483P-A/PANSTARRS,e,14.1738,199.0089,49.5563,3.195199,0.1725668,0.22169952,236.0553,11/24.0/2025,2000,g 13.5,4.0
# From MPC185666
483P-B/PANSTARRS,e,14.1746,199.0081,49.5471,3.195118,0.1725734,0.22164231,236.0912,11/24.0/2025,2000,g 17.0,4.0
# From MPEC 2025-W75
484P/Spacewatch,e,14.4742,265.3702,240.8281,3.756260,0.1353850,0.43311844,246.6117,11/24.0/2025,2000,g 16.0,4.0
# From MPEC 2025-W75
485P/Sheppard-Tholen,e,10.0160,261.6448,196.1442,6.852818,0.0549415,0.41716586,45.1373,11/24.0/2025,2000,g 13.0,4.0
# From MPEC 2025-W75
486P/Leonard,e,2.2097,219.0233,93.9368,3.626988,0.1426872,0.36339876,33.4154,11/24.0/2025,2000,g 14.5,4.0
# From MPEC 2025-W75
487P/SidingSpring,e,39.3662,49.2006,0.8391,5.160610,0.0840722,0.64834060,33.5823,11/24.0/2025,2000,g 13.5,4.0
# From MPEC 2025-W75
488P/NEAT-PANSTARRS,e,11.4338,323.6047,2.2957,3.752586,0.1355839,0.55164597,74.9408,11/24.0/2025,2000,g 16.5,4.0
# From MPEC 2024-Q14
489P/Denning,e,4.0259,20.5996,109.4186,4.425575,0.1058643,0.64719869,358.9089,11/24.0/2025,2000,g 15.5,4.0
# From MPEC 2025-W75
490P/ATLAS,e,12.2674,307.5874,332.5832,3.030649,0.1868102,0.64695838,78.8138,11/24.0/2025,2000,g 21.0,4.0
# From MPEC 2025-W75
491P/Spacewatch-PANSTARRS,e,9.3670,311.6834,298.8446,5.012737,0.0878196,0.25869054,39.0110,11/24.0/2025,2000,g  9.5,4.0
# From MPEC 2025-W75
492P/LINEAR,e,11.4011,11.3049,40.9810,5.758263,0.0713291,0.69051184,35.0655,11/24.0/2025,2000,g 15.0,4.0
# From MPEC 2025-W75
493P/LONEOS,e,24.1083,1.0879,83.2236,7.175322,0.0512793,0.46720646,357.3797,11/24.0/2025,2000,g 12.0,2.0
# From MPEC 2025-W75
494P/PANSTARRS,e,7.7899,245.0436,48.8850,3.794348,0.1333517,0.35668907,72.2847,11/24.0/2025,2000,g 16.0,4.0
# From MPEC 2025-W75
495P/Christensen,e,26.3567,291.6130,141.3336,4.761573,0.0948590,0.27338651,3.1006,11/24.0/2025,2000,g 11.5,4.0
# From MPEC 2025-W75
496P/Hill,e,14.8143,63.5867,42.2515,6.099290,0.0654312,0.73420263,16.9284,11/24.0/2025,2000,g 14.0,4.0
# From MPEC 2025-W75
497P/Spacewatch-PANSTARRS,e,10.4370,40.3606,32.3877,5.610820,0.0741591,0.63022022,20.8950,11/24.0/2025,2000,g 17.5,4.0
# From MPEC 2025-W75
498P/LINEAR,e,14.4827,279.2300,179.0908,4.592990,0.1001292,0.57227012,34.0522,11/24.0/2025,2000,g 14.7,4.0
# From MPEC 2025-W75
499P/Catalina,e,24.5833,139.3045,2.5668,3.018088,0.1879776,0.69149600,49.7384,11/24.0/2025,2000,g 18.5,4.0
# From MPEC 2025-W75
500P/PANSTARRS,e,2.3015,111.5264,46.7061,3.416309,0.1560876,0.37595487,36.9942,11/24.0/2025,2000,g 16.0,4.0
# From MPEC 2025-W75
501P/Rankin,e,10.0475,139.7836,53.6854,2.227873,0.2963934,0.69855598,174.4781,11/24.0/2025,2000,g 21.5,4.0
# From MPEC 2025-W75
502P/NEAT,e,11.3993,264.4832,37.7270,7.995366,0.0435960,0.47101135,4.8405,11/24.0/2025,2000,g  8.5,4.0
# From MPEC 2025-W75
503P/PANSTARRS,e,10.5748,268.5818,17.9431,3.658048,0.1408737,0.48131688,2.5993,11/24.0/2025,2000,g 15.0,4.0
# From MPEC 2025-W75
504P/WISE-PANSTARRS,e,8.8063,221.1198,308.5366,3.744992,0.1359965,0.40610412,31.1339,11/24.0/2025,2000,g 14.3,4.0
# From MPEC 2025-W75
505P/Palomar,e,11.3883,111.9418,143.9517,4.113089,0.1181550,0.31070997,353.5426,11/24.0/2025,2000,g 14.9,4.0
# From MPEC 2025-W75
506P/WISE-LINEAR,e,13.6551,325.6186,354.5954,5.585563,0.0746627,0.48236530,61.2542,11/24.0/2025,2000,g 12.7,4.0
# From MPEC 2025-W75
507P/Lemmon,e,17.0889,233.1243,107.7629,6.211784,0.0636619,0.56853069,69.3469,11/24.0/2025,2000,g 12.6,4.0
# From MPEC 2025-W75
508P/McNaught,e,31.7333,268.8299,338.8762,3.574876,0.1458185,0.56941994,19.7952,11/24.0/2025,2000,g 16.5,4.0
# From MPEC 2025-W75
509P/Catalina,e,8.6040,275.2082,180.0996,7.038915,0.0527771,0.47536099,353.8877,11/24.0/2025,2000,g 10.0,4.0
# From MPEC 2025-W75
510P/Boattini,e,8.2276,280.6682,86.6872,6.483256,0.0597055,0.24803799,342.7311,11/24.0/2025,2000,g  9.5,4.0
# From MPEC 2025-W75
511P/PANSTARRS,e,14.7853,271.0275,81.2260,3.010102,0.1887262,0.23723555,25.6601,11/24.0/2025,2000,g 17.1,4.0
# From MPEC 2025-W75
512P/PANSTARRS,e,12.5688,73.7449,308.7045,5.698319,0.0724576,0.15738988,332.7645,11/24.0/2025,2000,g 10.0,4.0
# From MPEC 2025-W75
513P/Broughton,e,21.3856,56.9970,304.8670,7.255277,0.0504340,0.55154679,8.2322,11/24.0/2025,2000,g 11.0,4.0
# From MPC107687
1I/`Oumuamua,h,09/09.4886/2017,122.6778,24.5997,241.6845,1.199252,0.255240,2000,23.0,2.0
# From MPEC 2025-R69
